{
    "name": "planet_eoc",
    "description": "A tileset created by DFD-WIS (DLR/EOC) with OSM data from 2021/06/21 based on the layers of OpenMapTiles (https://openmaptiles.org)",
    "version": "2",
    "minzoom": 0,
    "maxzoom": 12,
    "center": "0.000000,0.000000,12",
    "bounds": [
        -180,
        -85.051129,
        180,
        85.051129
    ],
    "type": "overlay",
    "attribution": "<a href=\"https://www.dlr.de/eoc/\" target=\"_blank\">&copy; DLR/EOC</a> <a href=\"https://www.openmaptiles.org/\" target=\"_blank\">&copy; OpenMapTiles</a> <a href=\"https://www.openstreetmap.org/copyright\" target=\"_blank\">&copy; OpenStreetMap contributors</a>",
    "format": "pbf",
    "generator": "tile-join v1.35.0",
    "basename": "planet_eoc_2021_06_21_z0-12",
    "profile": "mercator",
    "scale": 1,
    "tiles": [
        "https://a.tiles.geoservice.dlr.de/service/tms/1.0.0/planet_eoc@EPSG%3A900913@pbf/{z}/{x}/{y}.pbf?flipy=true",
        "https://b.tiles.geoservice.dlr.de/service/tms/1.0.0/planet_eoc@EPSG%3A900913@pbf/{z}/{x}/{y}.pbf?flipy=true",
        "https://c.tiles.geoservice.dlr.de/service/tms/1.0.0/planet_eoc@EPSG%3A900913@pbf/{z}/{x}/{y}.pbf?flipy=true",
        "https://d.tiles.geoservice.dlr.de/service/tms/1.0.0/planet_eoc@EPSG%3A900913@pbf/{z}/{x}/{y}.pbf?flipy=true"
    ],
    "tilejson": "2.0.0",
    "scheme": "xyz",
    "vector_layers": [
        {
            "id": "aerodrome_label",
            "description": "[Aerodrome labels](http://wiki.openstreetmap.org/wiki/Tag:aeroway%3Daerodrome)",
            "minzoom": 10,
            "maxzoom": 12,
            "fields": {
                "class": "String",
                "ele": "Number",
                "ele_ft": "Number",
                "iata": "String",
                "icao": "String",
                "name": "String",
                "name:am": "String",
                "name:ar": "String",
                "name:az": "String",
                "name:be": "String",
                "name:bg": "String",
                "name:br": "String",
                "name:bs": "String",
                "name:ca": "String",
                "name:co": "String",
                "name:cs": "String",
                "name:cy": "String",
                "name:da": "String",
                "name:de": "String",
                "name:el": "String",
                "name:en": "String",
                "name:eo": "String",
                "name:es": "String",
                "name:et": "String",
                "name:eu": "String",
                "name:fi": "String",
                "name:fr": "String",
                "name:fy": "String",
                "name:ga": "String",
                "name:gd": "String",
                "name:he": "String",
                "name:hi": "String",
                "name:hr": "String",
                "name:hu": "String",
                "name:hy": "String",
                "name:id": "String",
                "name:is": "String",
                "name:it": "String",
                "name:ja": "String",
                "name:ja-Hira": "String",
                "name:ja-Latn": "String",
                "name:ja_kana": "String",
                "name:ja_rm": "String",
                "name:ka": "String",
                "name:kk": "String",
                "name:kn": "String",
                "name:ko": "String",
                "name:ko-Latn": "String",
                "name:ku": "String",
                "name:la": "String",
                "name:latin": "String",
                "name:lb": "String",
                "name:lt": "String",
                "name:lv": "String",
                "name:mk": "String",
                "name:ml": "String",
                "name:mt": "String",
                "name:nl": "String",
                "name:no": "String",
                "name:nonlatin": "String",
                "name:oc": "String",
                "name:pl": "String",
                "name:pt": "String",
                "name:rm": "String",
                "name:ro": "String",
                "name:ru": "String",
                "name:sk": "String",
                "name:sl": "String",
                "name:sq": "String",
                "name:sr": "String",
                "name:sr-Latn": "String",
                "name:sv": "String",
                "name:ta": "String",
                "name:te": "String",
                "name:th": "String",
                "name:tr": "String",
                "name:uk": "String",
                "name:zh": "String",
                "name_de": "String",
                "name_en": "String",
                "name_int": "String"
            }
        },
        {
            "id": "aeroway",
            "description": "Aeroway polygons based of OpenStreetMap [aeroways](http://wiki.openstreetmap.org/wiki/Aeroways).nAirport buildings are contained in the **building** layer but allnother airport related polygons can be found in the **aeroway** layer.",
            "minzoom": 10,
            "maxzoom": 12,
            "fields": {
                "class": "String",
                "ref": "String"
            }
        },
        {
            "id": "boundary",
            "description": "Contains administrative boundaries as linestrings.nUntil z4 [Natural Earth data](http://www.naturalearthdata.com/downloads/) is used after whichnOSM boundaries ([`boundary=administrative`](http://wiki.openstreetmap.org/wiki/Tag:boundary%3Dadministrative))nare present from z5 to z14 (also for maritime boundaries with `admin_level <= 2` at z4).nOSM data contains several [`admin_level`](http://wiki.openstreetmap.org/wiki/Tag:boundary%3Dadministrative#admin_level)nbut for most styles it makes sense to just style `admin_level=2` and `admin_level=4`.",
            "minzoom": 0,
            "maxzoom": 12,
            "fields": {
                "adm0_l": "String",
                "adm0_r": "String",
                "admin_level": "Number",
                "claimed_by": "String",
                "disputed": "Number",
                "disputed_name": "String",
                "maritime": "Number"
            }
        },
        {
            "id": "landcover",
            "description": "Landcover is used to describe the physical material at the surface of the earth. At lower zoom levels this isnfrom Natural Earth data for glaciers and ice shelves and at higher zoom levels the landcover is [implied by OSM tags](http://wiki.openstreetmap.org/wiki/Landcover). The most common use case for this layern  is to style wood (`class=wood`) and grass (`class=grass`) areas.",
            "minzoom": 0,
            "maxzoom": 12,
            "fields": {
                "class": "String",
                "subclass": "String"
            }
        },
        {
            "id": "landuse",
            "description": "Landuse is used to describe use of land by humans. At lower zoom levels this isnfrom Natural Earth data for residential (urban) areas and at higher zoom levels mostly OSM `landuse` tags.",
            "minzoom": 4,
            "maxzoom": 12,
            "fields": {
                "class": "String"
            }
        },
        {
            "id": "mountain_peak",
            "description": "[Natural peaks](http://wiki.openstreetmap.org/wiki/Tag:natural%3Dpeak)",
            "minzoom": 7,
            "maxzoom": 12,
            "fields": {
                "class": "String",
                "ele": "Number",
                "ele_ft": "Number",
                "name": "String",
                "name:am": "String",
                "name:ar": "String",
                "name:az": "String",
                "name:be": "String",
                "name:bg": "String",
                "name:br": "String",
                "name:bs": "String",
                "name:ca": "String",
                "name:co": "String",
                "name:cs": "String",
                "name:cy": "String",
                "name:da": "String",
                "name:de": "String",
                "name:el": "String",
                "name:en": "String",
                "name:eo": "String",
                "name:es": "String",
                "name:et": "String",
                "name:eu": "String",
                "name:fi": "String",
                "name:fr": "String",
                "name:fy": "String",
                "name:ga": "String",
                "name:gd": "String",
                "name:he": "String",
                "name:hi": "String",
                "name:hr": "String",
                "name:hu": "String",
                "name:hy": "String",
                "name:id": "String",
                "name:is": "String",
                "name:it": "String",
                "name:ja": "String",
                "name:ja-Hira": "String",
                "name:ja-Latn": "String",
                "name:ja_kana": "String",
                "name:ja_rm": "String",
                "name:ka": "String",
                "name:kk": "String",
                "name:kn": "String",
                "name:ko": "String",
                "name:ko-Latn": "String",
                "name:ku": "String",
                "name:la": "String",
                "name:latin": "String",
                "name:lb": "String",
                "name:lt": "String",
                "name:lv": "String",
                "name:mk": "String",
                "name:ml": "String",
                "name:mt": "String",
                "name:nl": "String",
                "name:no": "String",
                "name:nonlatin": "String",
                "name:oc": "String",
                "name:pl": "String",
                "name:pt": "String",
                "name:rm": "String",
                "name:ro": "String",
                "name:ru": "String",
                "name:sk": "String",
                "name:sl": "String",
                "name:sq": "String",
                "name:sr": "String",
                "name:sr-Latn": "String",
                "name:sv": "String",
                "name:ta": "String",
                "name:te": "String",
                "name:th": "String",
                "name:tr": "String",
                "name:uk": "String",
                "name:zh": "String",
                "name_de": "String",
                "name_en": "String",
                "name_int": "String",
                "rank": "Number"
            }
        },
        {
            "id": "park",
            "description": "The park layer contains parks from OpenStreetMap tagged withn[`boundary=national_park`](http://wiki.openstreetmap.org/wiki/Tag:boundary%3Dnational_park),n[`boundary=protected_area`](http://wiki.openstreetmap.org/wiki/Tag:boundary%3Dprotected_area),nor [`leisure=nature_reserve`](http://wiki.openstreetmap.org/wiki/Tag:leisure%3Dnature_reserve).",
            "minzoom": 6,
            "maxzoom": 12,
            "fields": {
                "class": "String",
                "name": "String",
                "name:am": "String",
                "name:ar": "String",
                "name:az": "String",
                "name:be": "String",
                "name:bg": "String",
                "name:br": "String",
                "name:bs": "String",
                "name:ca": "String",
                "name:co": "String",
                "name:cs": "String",
                "name:cy": "String",
                "name:da": "String",
                "name:de": "String",
                "name:el": "String",
                "name:en": "String",
                "name:eo": "String",
                "name:es": "String",
                "name:et": "String",
                "name:eu": "String",
                "name:fi": "String",
                "name:fr": "String",
                "name:fy": "String",
                "name:ga": "String",
                "name:gd": "String",
                "name:he": "String",
                "name:hi": "String",
                "name:hr": "String",
                "name:hu": "String",
                "name:hy": "String",
                "name:id": "String",
                "name:is": "String",
                "name:it": "String",
                "name:ja": "String",
                "name:ja-Hira": "String",
                "name:ja-Latn": "String",
                "name:ja_kana": "String",
                "name:ja_rm": "String",
                "name:ka": "String",
                "name:kk": "String",
                "name:kn": "String",
                "name:ko": "String",
                "name:ko-Latn": "String",
                "name:ku": "String",
                "name:la": "String",
                "name:latin": "String",
                "name:lb": "String",
                "name:lt": "String",
                "name:lv": "String",
                "name:mk": "String",
                "name:ml": "String",
                "name:mt": "String",
                "name:nl": "String",
                "name:no": "String",
                "name:nonlatin": "String",
                "name:oc": "String",
                "name:pl": "String",
                "name:pt": "String",
                "name:rm": "String",
                "name:ro": "String",
                "name:ru": "String",
                "name:sk": "String",
                "name:sl": "String",
                "name:sq": "String",
                "name:sr": "String",
                "name:sr-Latn": "String",
                "name:sv": "String",
                "name:ta": "String",
                "name:te": "String",
                "name:th": "String",
                "name:tr": "String",
                "name:uk": "String",
                "name:zh": "String",
                "name_de": "String",
                "name_en": "String",
                "name_int": "String",
                "rank": "Number"
            }
        },
        {
            "id": "place",
            "description": "The place layer consists out of [countries](http://wiki.openstreetmap.org/wiki/Tag:place%3Dcountry),n[states](http://wiki.openstreetmap.org/wiki/Tag:place%3Dstate) and [cities](http://wiki.openstreetmap.org/wiki/Key:place).nApart from the roads this is also one of the more important layers to create a beautiful map.nWe suggest you use different font styles and sizes to create a text hierarchy.",
            "minzoom": 0,
            "maxzoom": 12,
            "fields": {
                "capital": "Number",
                "class": "String",
                "iso_a2": "String",
                "name": "String",
                "name:am": "String",
                "name:ar": "String",
                "name:az": "String",
                "name:be": "String",
                "name:bg": "String",
                "name:br": "String",
                "name:bs": "String",
                "name:ca": "String",
                "name:co": "String",
                "name:cs": "String",
                "name:cy": "String",
                "name:da": "String",
                "name:de": "String",
                "name:el": "String",
                "name:en": "String",
                "name:eo": "String",
                "name:es": "String",
                "name:et": "String",
                "name:eu": "String",
                "name:fi": "String",
                "name:fr": "String",
                "name:fy": "String",
                "name:ga": "String",
                "name:gd": "String",
                "name:he": "String",
                "name:hi": "String",
                "name:hr": "String",
                "name:hu": "String",
                "name:hy": "String",
                "name:id": "String",
                "name:is": "String",
                "name:it": "String",
                "name:ja": "String",
                "name:ja-Hira": "String",
                "name:ja-Latn": "String",
                "name:ja_kana": "String",
                "name:ja_rm": "String",
                "name:ka": "String",
                "name:kk": "String",
                "name:kn": "String",
                "name:ko": "String",
                "name:ko-Latn": "String",
                "name:ku": "String",
                "name:la": "String",
                "name:latin": "String",
                "name:lb": "String",
                "name:lt": "String",
                "name:lv": "String",
                "name:mk": "String",
                "name:ml": "String",
                "name:mt": "String",
                "name:nl": "String",
                "name:no": "String",
                "name:nonlatin": "String",
                "name:oc": "String",
                "name:pl": "String",
                "name:pt": "String",
                "name:rm": "String",
                "name:ro": "String",
                "name:ru": "String",
                "name:sk": "String",
                "name:sl": "String",
                "name:sq": "String",
                "name:sr": "String",
                "name:sr-Latn": "String",
                "name:sv": "String",
                "name:ta": "String",
                "name:te": "String",
                "name:th": "String",
                "name:tr": "String",
                "name:uk": "String",
                "name:zh": "String",
                "name_de": "String",
                "name_en": "String",
                "name_int": "String",
                "rank": "Number"
            }
        },
        {
            "id": "poi",
            "description": "[Points of interests](http://wiki.openstreetmap.org/wiki/Points_of_interest) containingna of a variety of OpenStreetMap tags. Mostly contains amenities, sport, shop and tourist POIs.",
            "minzoom": 12,
            "maxzoom": 12,
            "fields": {
                "class": "String",
                "indoor": "Number",
                "layer": "Number",
                "level": "Number",
                "name": "String",
                "name:am": "String",
                "name:ar": "String",
                "name:az": "String",
                "name:be": "String",
                "name:bg": "String",
                "name:br": "String",
                "name:bs": "String",
                "name:ca": "String",
                "name:co": "String",
                "name:cs": "String",
                "name:cy": "String",
                "name:da": "String",
                "name:de": "String",
                "name:el": "String",
                "name:en": "String",
                "name:eo": "String",
                "name:es": "String",
                "name:et": "String",
                "name:eu": "String",
                "name:fi": "String",
                "name:fr": "String",
                "name:fy": "String",
                "name:ga": "String",
                "name:gd": "String",
                "name:he": "String",
                "name:hi": "String",
                "name:hr": "String",
                "name:hu": "String",
                "name:hy": "String",
                "name:id": "String",
                "name:is": "String",
                "name:it": "String",
                "name:ja": "String",
                "name:ja-Hira": "String",
                "name:ja-Latn": "String",
                "name:ja_kana": "String",
                "name:ja_rm": "String",
                "name:ka": "String",
                "name:kk": "String",
                "name:kn": "String",
                "name:ko": "String",
                "name:ko-Latn": "String",
                "name:ku": "String",
                "name:la": "String",
                "name:latin": "String",
                "name:lb": "String",
                "name:lt": "String",
                "name:lv": "String",
                "name:mk": "String",
                "name:ml": "String",
                "name:mt": "String",
                "name:nl": "String",
                "name:no": "String",
                "name:nonlatin": "String",
                "name:oc": "String",
                "name:pl": "String",
                "name:pt": "String",
                "name:rm": "String",
                "name:ro": "String",
                "name:ru": "String",
                "name:sk": "String",
                "name:sl": "String",
                "name:sq": "String",
                "name:sr": "String",
                "name:sr-Latn": "String",
                "name:sv": "String",
                "name:ta": "String",
                "name:te": "String",
                "name:th": "String",
                "name:tr": "String",
                "name:uk": "String",
                "name:zh": "String",
                "name_de": "String",
                "name_en": "String",
                "name_int": "String",
                "rank": "Number",
                "subclass": "String"
            }
        },
        {
            "id": "transportation",
            "description": "**transportation** contains roads, railways, aerial ways, and shippingn lines.nThis layer is directly derived from the OSM road hierarchy.nAt lower zoom levels major highways from Natural Earth are used.nIt contains all roads from motorways to primary, secondary andntertiary roads to residential roads andnfoot paths. Styling the roads is the most essential part of the map.nThe `transportation` layer also contains polygons for features like plazas.",
            "minzoom": 4,
            "maxzoom": 12,
            "fields": {
                "bicycle": "String",
                "brunnel": "String",
                "class": "String",
                "foot": "String",
                "horse": "String",
                "layer": "Number",
                "mtb_scale": "String",
                "oneway": "Number",
                "ramp": "Number",
                "service": "String",
                "subclass": "String",
                "surface": "String"
            }
        },
        {
            "id": "transportation_name",
            "description": "This is the layer for labelling the highways. Only highways that are named `name=*` and are long enoughnto place text upon appear. The OSM roads are stitched together if they contain the same namento have better label placement than having many small linestrings.nFor motorways you should use the `ref` field to label them while for other roads you should use `name`.",
            "minzoom": 6,
            "maxzoom": 12,
            "fields": {
                "brunnel": "String",
                "class": "String",
                "name": "String",
                "name:am": "String",
                "name:ar": "String",
                "name:az": "String",
                "name:be": "String",
                "name:bg": "String",
                "name:br": "String",
                "name:bs": "String",
                "name:ca": "String",
                "name:co": "String",
                "name:cs": "String",
                "name:cy": "String",
                "name:da": "String",
                "name:de": "String",
                "name:el": "String",
                "name:en": "String",
                "name:eo": "String",
                "name:es": "String",
                "name:et": "String",
                "name:eu": "String",
                "name:fi": "String",
                "name:fr": "String",
                "name:fy": "String",
                "name:ga": "String",
                "name:gd": "String",
                "name:he": "String",
                "name:hi": "String",
                "name:hr": "String",
                "name:hu": "String",
                "name:hy": "String",
                "name:id": "String",
                "name:is": "String",
                "name:it": "String",
                "name:ja": "String",
                "name:ja-Hira": "String",
                "name:ja-Latn": "String",
                "name:ja_kana": "String",
                "name:ja_rm": "String",
                "name:ka": "String",
                "name:kk": "String",
                "name:kn": "String",
                "name:ko": "String",
                "name:ko-Latn": "String",
                "name:ku": "String",
                "name:la": "String",
                "name:latin": "String",
                "name:lb": "String",
                "name:lt": "String",
                "name:lv": "String",
                "name:mk": "String",
                "name:ml": "String",
                "name:nl": "String",
                "name:no": "String",
                "name:nonlatin": "String",
                "name:oc": "String",
                "name:pl": "String",
                "name:pt": "String",
                "name:ro": "String",
                "name:ru": "String",
                "name:sk": "String",
                "name:sl": "String",
                "name:sq": "String",
                "name:sr": "String",
                "name:sr-Latn": "String",
                "name:sv": "String",
                "name:ta": "String",
                "name:te": "String",
                "name:th": "String",
                "name:tr": "String",
                "name:uk": "String",
                "name:zh": "String",
                "name_de": "String",
                "name_en": "String",
                "name_int": "String",
                "network": "String",
                "ref": "String",
                "ref_length": "Number"
            }
        },
        {
            "id": "water",
            "description": "Water polygons representing oceans and lakes. Covered watered areas are excluded (`covered=yes`).nOn low zoom levels all water originates from Natural Earth. To get a more correct display of the south pole you should alsonstyle the covering ice shelves over the water.nOn higher zoom levels water polygons from [OpenStreetMapData](http://osmdata.openstreetmap.de/) are used.nThe polygons are split into many smaller polygons to improve rendering performance.nThis however can lead to less rendering options in clients since these boundaries show up. So you might not benable to use border styling for ocean water features.",
            "minzoom": 0,
            "maxzoom": 12,
            "fields": {
                "brunnel": "String",
                "class": "String",
                "intermittent": "Number"
            }
        },
        {
            "id": "water_name",
            "description": "Lake center lines for labelling lake bodies.nThis is based of the [osm-lakelines](https://github.com/lukasmartinelli/osm-lakelines) projectnwhich derives nice centerlines from OSM water bodies. Only the most important lakes contain labels.",
            "minzoom": 0,
            "maxzoom": 12,
            "fields": {
                "class": "String",
                "intermittent": "Number",
                "name": "String",
                "name:am": "String",
                "name:ar": "String",
                "name:az": "String",
                "name:be": "String",
                "name:bg": "String",
                "name:br": "String",
                "name:bs": "String",
                "name:ca": "String",
                "name:co": "String",
                "name:cs": "String",
                "name:cy": "String",
                "name:da": "String",
                "name:de": "String",
                "name:el": "String",
                "name:en": "String",
                "name:eo": "String",
                "name:es": "String",
                "name:et": "String",
                "name:eu": "String",
                "name:fi": "String",
                "name:fr": "String",
                "name:fy": "String",
                "name:ga": "String",
                "name:gd": "String",
                "name:he": "String",
                "name:hi": "String",
                "name:hr": "String",
                "name:hu": "String",
                "name:hy": "String",
                "name:id": "String",
                "name:is": "String",
                "name:it": "String",
                "name:ja": "String",
                "name:ja-Hira": "String",
                "name:ja-Latn": "String",
                "name:ja_kana": "String",
                "name:ja_rm": "String",
                "name:ka": "String",
                "name:kk": "String",
                "name:kn": "String",
                "name:ko": "String",
                "name:ko-Latn": "String",
                "name:ku": "String",
                "name:la": "String",
                "name:latin": "String",
                "name:lb": "String",
                "name:lt": "String",
                "name:lv": "String",
                "name:mk": "String",
                "name:ml": "String",
                "name:mt": "String",
                "name:nl": "String",
                "name:no": "String",
                "name:nonlatin": "String",
                "name:oc": "String",
                "name:pl": "String",
                "name:pt": "String",
                "name:rm": "String",
                "name:ro": "String",
                "name:ru": "String",
                "name:sk": "String",
                "name:sl": "String",
                "name:sq": "String",
                "name:sr": "String",
                "name:sr-Latn": "String",
                "name:sv": "String",
                "name:ta": "String",
                "name:te": "String",
                "name:th": "String",
                "name:tr": "String",
                "name:uk": "String",
                "name:zh": "String",
                "name_de": "String",
                "name_en": "String",
                "name_int": "String"
            }
        },
        {
            "id": "waterway",
            "description": "OpenStreetMap [waterways](https://wiki.openstreetmap.org/wiki/Waterways) for higher zoom levels (z9 and more)nand Natural Earth rivers and lake centerlines for low zoom levels (z3 - z8).nLinestrings without a name or which are too short are filterednout at low zoom levels.nTill z11 there is `river` class only, in z12 there is also `canal` generated,nstarting z13 there is no generalization according to `class` field applied.nWaterways do not have a `subclass` field.",
            "minzoom": 3,
            "maxzoom": 12,
            "fields": {
                "brunnel": "String",
                "class": "String",
                "intermittent": "Number",
                "name": "String",
                "name:am": "String",
                "name:ar": "String",
                "name:az": "String",
                "name:be": "String",
                "name:bg": "String",
                "name:br": "String",
                "name:bs": "String",
                "name:ca": "String",
                "name:co": "String",
                "name:cs": "String",
                "name:cy": "String",
                "name:da": "String",
                "name:de": "String",
                "name:el": "String",
                "name:en": "String",
                "name:eo": "String",
                "name:es": "String",
                "name:et": "String",
                "name:eu": "String",
                "name:fi": "String",
                "name:fr": "String",
                "name:fy": "String",
                "name:ga": "String",
                "name:gd": "String",
                "name:he": "String",
                "name:hi": "String",
                "name:hr": "String",
                "name:hu": "String",
                "name:hy": "String",
                "name:id": "String",
                "name:is": "String",
                "name:it": "String",
                "name:ja": "String",
                "name:ja-Hira": "String",
                "name:ja-Latn": "String",
                "name:ja_kana": "String",
                "name:ja_rm": "String",
                "name:ka": "String",
                "name:kk": "String",
                "name:kn": "String",
                "name:ko": "String",
                "name:ko-Latn": "String",
                "name:ku": "String",
                "name:la": "String",
                "name:latin": "String",
                "name:lb": "String",
                "name:lt": "String",
                "name:lv": "String",
                "name:mk": "String",
                "name:ml": "String",
                "name:mt": "String",
                "name:nl": "String",
                "name:no": "String",
                "name:nonlatin": "String",
                "name:oc": "String",
                "name:pl": "String",
                "name:pt": "String",
                "name:rm": "String",
                "name:ro": "String",
                "name:ru": "String",
                "name:sk": "String",
                "name:sl": "String",
                "name:sq": "String",
                "name:sr": "String",
                "name:sr-Latn": "String",
                "name:sv": "String",
                "name:ta": "String",
                "name:te": "String",
                "name:th": "String",
                "name:tr": "String",
                "name:uk": "String",
                "name:zh": "String",
                "name_de": "String",
                "name_en": "String",
                "name_int": "String"
            }
        }
    ]
}